{
  "norad_id": 56478,
  "name": "STARLINK-6041",
  "history": [
    {
      "epoch": "2026-03-28T08:15:45.709920Z",
      "apogee_km": 573.7271249381893,
      "perigee_km": 570.3799131842088,
      "latitude_deg": 6.080199492761667e-06,
      "longitude_deg": 127.71347157516271,
      "height_km": 574.7568404395915,
      "semi_major_axis_km": 6950.190519061199,
      "eccentricity": 0.0002408,
      "inclination_deg": 69.9996,
      "raan_deg": 77.42,
      "arg_perigee_deg": 260.4905,
      "mean_anomaly_deg": 99.5982,
      "mean_motion_rev_day": 14.98330767
    },
    {
      "epoch": "2026-03-29T05:05:30.294816Z",
      "apogee_km": 574.1413849734117,
      "perigee_km": 569.9712689772268,
      "latitude_deg": -2.42084142145498e-05,
      "longitude_deg": 172.2347713197401,
      "height_km": 574.5030057616116,
      "semi_major_axis_km": 6950.193326975319,
      "eccentricity": 0.0003,
      "inclination_deg": 69.9994,
      "raan_deg": 75.2325,
      "arg_perigee_deg": 269.4707,
      "mean_anomaly_deg": 90.6108,
      "mean_motion_rev_day": 14.98329859
    },
    {
      "epoch": "2026-03-30T05:07:31.552032Z",
      "apogee_km": 574.159792104494,
      "perigee_km": 569.9702103381578,
      "latitude_deg": 2.9535748129260416e-05,
      "longitude_deg": 168.216624751903,
      "height_km": 574.4506618873596,
      "semi_major_axis_km": 6950.202001221326,
      "eccentricity": 0.0003014,
      "inclination_deg": 69.9991,
      "raan_deg": 72.7066,
      "arg_perigee_deg": 271.1415,
      "mean_anomaly_deg": 88.9399,
      "mean_motion_rev_day": 14.98327054
    },
    {
      "epoch": "2026-03-30T05:07:31.552896Z",
      "apogee_km": 574.159792104494,
      "perigee_km": 569.9702103381578,
      "latitude_deg": 2.953574769181393e-05,
      "longitude_deg": 168.21662114204833,
      "height_km": 574.4506618873586,
      "semi_major_axis_km": 6950.202001221326,
      "eccentricity": 0.0003014,
      "inclination_deg": 69.9991,
      "raan_deg": 72.7066,
      "arg_perigee_deg": 271.1415,
      "mean_anomaly_deg": 88.9399,
      "mean_motion_rev_day": 14.98327054
    },
    {
      "epoch": "2026-03-30T08:19:47.755200Z",
      "apogee_km": 574.0957310549029,
      "perigee_km": 570.0338941115924,
      "latitude_deg": -2.2227840714167878e-05,
      "longitude_deg": 119.68078879326143,
      "height_km": 574.4474133982312,
      "semi_major_axis_km": 6950.201812583247,
      "eccentricity": 0.00029221,
      "inclination_deg": 69.9997,
      "raan_deg": 72.3699,
      "arg_perigee_deg": 271.2625,
      "mean_anomaly_deg": 88.8199,
      "mean_motion_rev_day": 14.98327115
    },
    {
      "epoch": "2026-03-30T16:20:28.242816Z",
      "apogee_km": 574.1626092863607,
      "perigee_km": 570.0327798308535,
      "latitude_deg": 1.8694944449652593e-05,
      "longitude_deg": -1.6585046127748113,
      "height_km": 574.1609713694974,
      "semi_major_axis_km": 6950.234694558607,
      "eccentricity": 0.0002971,
      "inclination_deg": 69.9998,
      "raan_deg": 71.5283,
      "arg_perigee_deg": 280.1536,
      "mean_anomaly_deg": 79.9288,
      "mean_motion_rev_day": 14.98316482
    },
    {
      "epoch": "2026-03-31T16:22:28.859808Z",
      "apogee_km": 574.1874064498797,
      "perigee_km": 569.9366647197157,
      "latitude_deg": 3.374595204198076e-05,
      "longitude_deg": -5.673089604311169,
      "height_km": 574.5232735446149,
      "semi_major_axis_km": 6950.1990355847975,
      "eccentricity": 0.0003058,
      "inclination_deg": 69.9996,
      "raan_deg": 69.0033,
      "arg_perigee_deg": 269.09,
      "mean_anomaly_deg": 90.9909,
      "mean_motion_rev_day": 14.98328013
    },
    {
      "epoch": "2026-04-01T08:23:49.847136Z",
      "apogee_km": 574.2226773104894,
      "perigee_km": 569.9330047106178,
      "latitude_deg": 3.5355980761988444e-05,
      "longitude_deg": 111.64884410726172,
      "height_km": 574.4222056526236,
      "semi_major_axis_km": 6950.214841010553,
      "eccentricity": 0.0003086,
      "inclination_deg": 69.9996,
      "raan_deg": 67.3207,
      "arg_perigee_deg": 272.221,
      "mean_anomaly_deg": 87.8596,
      "mean_motion_rev_day": 14.98322902
    },
    {
      "epoch": "2026-04-02T14:50:22.533504Z",
      "apogee_km": 574.1449421800553,
      "perigee_km": 569.9309121182259,
      "latitude_deg": 1.935104280684006e-05,
      "longitude_deg": 10.564220874681391,
      "height_km": 574.3958823091652,
      "semi_major_axis_km": 6950.17492714914,
      "eccentricity": 0.00030316,
      "inclination_deg": 69.9999,
      "raan_deg": 64.1225,
      "arg_perigee_deg": 271.8907,
      "mean_anomaly_deg": 88.1905,
      "mean_motion_rev_day": 14.98335809
    },
    {
      "epoch": "2026-04-02T22:51:02.820672Z",
      "apogee_km": 574.1683402120889,
      "perigee_km": 569.9367867982455,
      "latitude_deg": 6.43034167454584e-05,
      "longitude_deg": -110.77433373859817,
      "height_km": 574.4158998612126,
      "semi_major_axis_km": 6950.189563505167,
      "eccentricity": 0.00030442,
      "inclination_deg": 69.9997,
      "raan_deg": 63.2808,
      "arg_perigee_deg": 271.7368,
      "mean_anomaly_deg": 88.3443,
      "mean_motion_rev_day": 14.98331076
    },
    {
      "epoch": "2026-04-03T14:52:23.888352Z",
      "apogee_km": 574.1647901259721,
      "perigee_km": 569.9696468596903,
      "latitude_deg": 6.088467015543382e-05,
      "longitude_deg": 6.546561544899309,
      "height_km": 574.4242278396216,
      "semi_major_axis_km": 6950.204218492831,
      "eccentricity": 0.0003018,
      "inclination_deg": 70.0001,
      "raan_deg": 61.5975,
      "arg_perigee_deg": 271.9247,
      "mean_anomaly_deg": 88.1567,
      "mean_motion_rev_day": 14.98326337
    },
    {
      "epoch": "2026-04-04T06:53:45.335328Z",
      "apogee_km": 574.1141781970409,
      "perigee_km": 570.0610852008194,
      "latitude_deg": 6.003049173682732e-07,
      "longitude_deg": 123.86615122914758,
      "height_km": 574.460463318018,
      "semi_major_axis_km": 6950.224631698929,
      "eccentricity": 0.00029158,
      "inclination_deg": 70.0001,
      "raan_deg": 59.9145,
      "arg_perigee_deg": 271.5418,
      "mean_anomaly_deg": 88.5407,
      "mean_motion_rev_day": 14.98319736
    },
    {
      "epoch": "2026-04-05T06:55:44.793696Z",
      "apogee_km": 574.093500552026,
      "perigee_km": 569.9456471087642,
      "latitude_deg": -5.984178633337096e-05,
      "longitude_deg": 119.85567720661469,
      "height_km": 574.1911189872059,
      "semi_major_axis_km": 6950.156573830395,
      "eccentricity": 0.0002984,
      "inclination_deg": 70.0,
      "raan_deg": 57.3888,
      "arg_perigee_deg": 277.0864,
      "mean_anomaly_deg": 82.9955,
      "mean_motion_rev_day": 14.98341744
    },
    {
      "epoch": "2026-04-05T14:56:25.134432Z",
      "apogee_km": 574.0839538131513,
      "perigee_km": 569.9569503181147,
      "latitude_deg": 9.797510897425154e-06,
      "longitude_deg": -1.4826931128247034,
      "height_km": 574.279401078319,
      "semi_major_axis_km": 6950.157452065633,
      "eccentricity": 0.0002969,
      "inclination_deg": 70.0001,
      "raan_deg": 56.5475,
      "arg_perigee_deg": 274.6827,
      "mean_anomaly_deg": 85.3993,
      "mean_motion_rev_day": 14.9834146
    },
    {
      "epoch": "2026-04-06T03:45:29.814912Z",
      "apogee_km": 573.8673270069166,
      "perigee_km": 570.2393276560488,
      "latitude_deg": 5.6249807662831285e-05,
      "longitude_deg": 164.37430544565694,
      "height_km": 574.8231375968954,
      "semi_major_axis_km": 6950.190327331482,
      "eccentricity": 0.000261,
      "inclination_deg": 70.0006,
      "raan_deg": 55.2004,
      "arg_perigee_deg": 259.1099,
      "mean_anomaly_deg": 100.9767,
      "mean_motion_rev_day": 14.98330829
    },
    {
      "epoch": "2026-04-07T03:47:30.831936Z",
      "apogee_km": 573.9219428476845,
      "perigee_km": 570.1372991158951,
      "latitude_deg": 7.733821461282972e-06,
      "longitude_deg": 160.35882219811276,
      "height_km": 574.5969877518709,
      "semi_major_axis_km": 6950.1666209817895,
      "eccentricity": 0.00027227,
      "inclination_deg": 70.0009,
      "raan_deg": 52.6762,
      "arg_perigee_deg": 265.754,
      "mean_anomaly_deg": 94.3308,
      "mean_motion_rev_day": 14.98338495
    },
    {
      "epoch": "2026-04-08T05:25:40.030464Z",
      "apogee_km": 573.8198281740897,
      "perigee_km": 570.3256797223894,
      "latitude_deg": -1.7710961605777557e-05,
      "longitude_deg": 132.07445409146362,
      "height_km": 574.7136346186815,
      "semi_major_axis_km": 6950.209753948239,
      "eccentricity": 0.00025137,
      "inclination_deg": 70.0007,
      "raan_deg": 49.983,
      "arg_perigee_deg": 262.9686,
      "mean_anomaly_deg": 97.1187,
      "mean_motion_rev_day": 14.98324547
    },
    {
      "epoch": "2026-04-09T13:28:20.201952Z",
      "apogee_km": 573.9815685863468,
      "perigee_km": 569.9588465346114,
      "latitude_deg": 5.43719850066266e-06,
      "longitude_deg": 6.725256720961605,
      "height_km": 574.5086608451021,
      "semi_major_axis_km": 6950.107207560479,
      "eccentricity": 0.0002894,
      "inclination_deg": 70.0012,
      "raan_deg": 46.6172,
      "arg_perigee_deg": 266.8371,
      "mean_anomaly_deg": 93.2457,
      "mean_motion_rev_day": 14.98357708
    },
    {
      "epoch": "2026-04-10T03:53:33.438048Z",
      "apogee_km": 573.9681074697619,
      "perigee_km": 570.1468905342117,
      "latitude_deg": -1.2831798924735524e-05,
      "longitude_deg": 148.31327558736743,
      "height_km": 574.5357245739202,
      "semi_major_axis_km": 6950.1944990019865,
      "eccentricity": 0.0002749,
      "inclination_deg": 70.0011,
      "raan_deg": 45.1026,
      "arg_perigee_deg": 268.4723,
      "mean_anomaly_deg": 91.6121,
      "mean_motion_rev_day": 14.9832948
    }
  ]
}